NORAD_CAT_ID,OBJECT_NAME,OBJECT_TYPE,EPOCH,MEAN_MOTION,ECCENTRICITY,INCLINATION,RA_OF_ASC_NODE,ARG_OF_PERICENTER,MEAN_ANOMALY,BSTAR,MEAN_MOTION_DOT,MEAN_MOTION_DDOT,TLE_LINE0,TLE_LINE1,TLE_LINE2,SEMIMAJOR_AXIS,PERIOD,APOGEE,PERIGEE,DECAYED
52634.0,STARLINK-3974,PAYLOAD,2024-08-01 21:04:47,15.08857395,0.0001378,53.2169,14.4649,100.2728,259.842,0.00041384,6.308e-05,0.0,0 STARLINK-3974,1 52634U 22052AN  24214.87832686  .00006308  00000-0  41384-3 0  9992,2 52634  53.2169  14.4649 0001378 100.2728 259.8420 15.08857395122708,6917.827,95.436,540.645,538.739,0.0
52634.0,STARLINK-3974,PAYLOAD,2024-08-02 03:26:20,15.08848183,0.0001736,53.2165,13.2722,70.1919,289.926,0.0003448,5.205e-05,0.0,0 STARLINK-3974,1 52634U 22052AN  24215.14329261  .00005205  00000-0  34480-3 0  9997,2 52634  53.2165  13.2722 0001736  70.1919 289.9260 15.08848183123126,6917.855,95.437,540.921,538.519,0.0
52634.0,STARLINK-3974,PAYLOAD,2024-08-02 14:34:03,15.08826732,0.0001836,53.2183,11.2043,104.0998,256.0198,-4.6429e-05,-1.027e-05,0.0,0 STARLINK-3974,1 52634U 22052AN  24215.60698778 -.00001027  00000-0 -46429-4 0  9997,2 52634  53.2183  11.2043 0001836 104.0998 256.0198 15.08826732122811,6917.921,95.438,541.056,538.516,0.0
52634.0,STARLINK-3974,PAYLOAD,2024-08-02 19:20:12,15.08832613,0.0001435,53.2176,10.3063,89.2581,270.8576,-1.2048e-05,-4.8e-06,0.0,0 STARLINK-3974,1 52634U 22052AN  24215.80570402 -.00000480  00000-0 -12048-4 0  9994,2 52634  53.2176  10.3063 0001435  89.2581 270.8576 15.08832613123227,6917.903,95.438,540.761,538.775,0.0
52634.0,STARLINK-3974,PAYLOAD,2024-08-03 14:24:50,15.08849102,0.0001373,53.2172,6.7381,94.6058,265.509,0.00026358,3.91e-05,0.0,0 STARLINK-3974,1 52634U 22052AN  24216.60057901  .00003910  00000-0  26358-3 0  9994,2 52634  53.2172   6.7381 0001373  94.6058 265.5090 15.08849102122968,6917.853,95.437,540.667,538.768,0.0
52634.0,STARLINK-3974,PAYLOAD,2024-08-03 19:10:59,15.08869173,0.000141,53.2164,5.8449,86.4495,273.6659,0.0015933,0.00025181,0.0,0 STARLINK-3974,1 52634U 22052AN  24216.79929974  .00025181  00000-0  15933-2 0  9992,2 52634  53.2164   5.8449 0001410  86.4495 273.6659 15.08869173123377,6917.791,95.436,540.632,538.681,0.0
52634.0,STARLINK-3974,PAYLOAD,2024-08-04 03:07:55,15.08850346,0.0001087,53.218,4.3502,120.5671,239.5428,0.00037575,5.699e-05,0.0,0 STARLINK-3974,1 52634U 22052AN  24217.13049870  .00005699  00000-0  37575-3 0  9998,2 52634  53.2180   4.3502 0001087 120.5671 239.5428 15.08850346123428,6917.849,95.437,540.466,538.962,0.0
52634.0,STARLINK-3974,PAYLOAD,2024-08-04 14:15:36,15.08868758,0.0001534,53.2164,2.2771,90.5897,269.5271,0.0010741,0.00016861,0.0,0 STARLINK-3974,1 52634U 22052AN  24217.59417613  .00016861  00000-0  10741-2 0  9990,2 52634  53.2164   2.2771 0001534  90.5897 269.5271 15.08868758123119,6917.792,95.436,540.719,538.596,0.0
52634.0,STARLINK-3974,PAYLOAD,2024-08-04 19:01:45,15.08907351,0.0001439,53.2152,1.3844,95.1614,264.9542,0.0038835,0.00062178,0.0,0 STARLINK-3974,1 52634U 22052AN  24217.79288861  .00062178  00000-0  38835-2 0  9999,2 52634  53.2152   1.3844 0001439  95.1614 264.9542 15.08907351123527,6917.675,95.433,540.535,538.544,0.0
52634.0,STARLINK-3974,PAYLOAD,2024-08-05 02:58:41,15.08903298,0.0002522,53.2163,359.8971,78.3037,281.8239,0.0035208,0.00056293,0.0,0 STARLINK-3974,1 52634U 22052AN  24218.12408955  .00056293  00000-0  35208-2 0  9997,2 52634  53.2163 359.8971 0002522  78.3037 281.8239 15.08903298123579,6917.687,95.434,541.297,537.807,0.0
52634.0,STARLINK-3974,PAYLOAD,2024-08-05 15:41:45,15.0886325,0.0001241,53.2163,357.5178,78.8033,281.3099,0.0014649,0.00023118,0.0,0 STARLINK-3974,1 52634U 22052AN  24218.65400264  .00023118  00000-0  14649-2 0  9996,2 52634  53.2163 357.5178 0001241  78.8033 281.3099 15.08863250123652,6917.809,95.436,540.533,538.816,0.0
52634.0,STARLINK-3974,PAYLOAD,2024-08-06 02:49:28,15.08852328,0.0001487,53.2171,355.4373,73.2036,286.912,0.0012839,0.00020211,0.0,0 STARLINK-3974,1 52634U 22052AN  24219.11768647  .00020211  00000-0  12839-2 0  9990,2 52634  53.2171 355.4373 0001487  73.2036 286.9120 15.08852328123727,6917.843,95.437,540.736,538.679,0.0
52634.0,STARLINK-3974,PAYLOAD,2024-08-06 12:21:47,15.08817262,0.0001159,53.216,353.6546,78.4562,281.6561,0.0012902,0.00020292,0.0,0 STARLINK-3974,1 52634U 22052AN  24219.51513600  .00020292  00000-0  12902-2 0  9991,2 52634  53.2160 353.6546 0001159  78.4562 281.6561 15.08817262123789,6917.95,95.439,540.617,539.013,0.0
52634.0,STARLINK-3974,PAYLOAD,2024-08-06 15:32:34,15.08819378,0.0001144,53.2163,353.0604,79.63,280.4821,0.0033845,0.00053958,0.0,0 STARLINK-3974,1 52634U 22052AN  24219.64762147  .00053958  00000-0  33845-2 0  9991,2 52634  53.2163 353.0604 0001144  79.6300 280.4821 15.08819378123425,6917.943,95.439,540.6,539.017,0.0
52634.0,STARLINK-3974,PAYLOAD,2024-08-07 12:12:35,15.08858962,0.0001145,53.2172,349.1919,81.9897,278.1225,0.0020713,0.00032848,0.0,0 STARLINK-3974,1 52634U 22052AN  24220.50874679  .00032848  00000-0  20713-2 0  9997,2 52634  53.2172 349.1919 0001145  81.9897 278.1225 15.08858962123938,6917.822,95.436,540.48,538.895,0.0
52634.0,STARLINK-3974,PAYLOAD,2024-08-07 15:23:21,15.08860859,0.0001255,53.2182,348.5976,90.1755,269.9381,0.0017815,0.00028195,0.0,0 STARLINK-3974,1 52634U 22052AN  24220.64122500  .00028195  00000-0  17815-2 0  9990,2 52634  53.2182 348.5976 0001255  90.1755 269.9381 15.08860859123571,6917.817,95.436,540.55,538.813,0.0
52634.0,STARLINK-3974,PAYLOAD,2024-08-08 13:38:45,15.08864471,0.0001329,53.2182,344.4358,95.787,264.3273,0.0015987,0.00025264,0.0,0 STARLINK-3974,1 52634U 22052AN  24221.56858211  .00025264  00000-0  15987-2 0  9999,2 52634  53.2182 344.4358 0001329  95.7870 264.3273 15.08864471123710,6917.806,95.436,540.59,538.751,0.0
52634.0,STARLINK-3974,PAYLOAD,2024-08-08 15:14:08,15.088672,0.0001357,53.2173,344.1391,91.5913,268.5234,0.0015215,0.00024028,0.0,0 STARLINK-3974,1 52634U 22052AN  24221.63482099  .00024028  00000-0  15215-2 0  9995,2 52634  53.2173 344.1391 0001357  91.5913 268.5234 15.08867200124107,6917.797,95.436,540.601,538.724,0.0
52634.0,STARLINK-3974,PAYLOAD,2024-08-09 00:46:27,15.08850821,0.0002027,53.2172,342.3518,80.0317,280.0904,0.0011359,0.00017842,0.0,0 STARLINK-3974,1 52634U 22052AN  24222.03226373  .00017842  00000-0  11359-2 0  9992,2 52634  53.2172 342.3518 0002027  80.0317 280.0904 15.08850821124163,6917.847,95.437,541.115,538.31,0.0
52634.0,STARLINK-3974,PAYLOAD,2024-08-09 11:54:09,15.08849795,0.0001715,53.2174,340.2702,118.4248,241.6917,0.00036869,5.586e-05,0.0,0 STARLINK-3974,1 52634U 22052AN  24222.49593792  .00005586  00000-0  36869-3 0  9990,2 52634  53.2174 340.2702 0001715 118.4248 241.6917 15.08849795124232,6917.85,95.437,540.902,538.529,0.0
52634.0,STARLINK-3974,PAYLOAD,2024-08-09 13:29:32,15.08850105,0.0001946,53.2188,339.974,123.169,236.9489,0.00037606,5.704e-05,0.0,0 STARLINK-3974,1 52634U 22052AN  24222.56217666  .00005704  00000-0  37606-3 0  9993,2 52634  53.2188 339.9740 0001946 123.1690 236.9489 15.08850105123860,6917.85,95.437,541.061,538.368,0.0
52634.0,STARLINK-3974,PAYLOAD,2024-08-09 15:04:55,15.08854827,0.0001238,53.2172,339.6768,91.7699,268.3435,0.00062906,9.742e-05,0.0,0 STARLINK-3974,1 52634U 22052AN  24222.62841811  .00009742  00000-0  62906-3 0  9992,2 52634  53.2172 339.6768 0001238  91.7699 268.3435 15.08854827123879,6917.835,95.437,540.556,538.844,0.0
52634.0,STARLINK-3974,PAYLOAD,2024-08-10 11:44:56,15.08845405,0.0001034,53.2167,335.8151,107.7397,252.3708,0.00042632,6.505e-05,0.0,0 STARLINK-3974,1 52634U 22052AN  24223.48954232  .00006505  00000-0  42632-3 0  9997,2 52634  53.2167 335.8151 0001034 107.7397 252.3708 15.08845405124389,6917.864,95.437,540.444,539.014,0.0
52634.0,STARLINK-3974,PAYLOAD,2024-08-10 16:31:05,15.08863511,0.0001229,53.2162,334.9242,110.6931,249.4193,0.0011162,0.00017532,0.0,0 STARLINK-3974,1 52634U 22052AN  24223.68825921  .00017532  00000-0  11162-2 0  9996,2 52634  53.2162 334.9242 0001229 110.6931 249.4193 15.08863511124415,6917.809,95.436,540.524,538.823,0.0
52634.0,STARLINK-3974,PAYLOAD,2024-08-11 00:28:01,15.08831855,0.0001483,53.2161,333.4309,85.735,274.3812,0.00021267,3.098e-05,0.0,0 STARLINK-3974,1 52634U 22052AN  24224.01946744  .00003098  00000-0  21267-3 0  9991,2 52634  53.2161 333.4309 0001483  85.7350 274.3812 15.08831855124467,6917.905,95.438,540.796,538.744,0.0
52634.0,STARLINK-3974,PAYLOAD,2024-08-11 16:21:54,15.08837267,0.0002099,53.216,330.4589,84.783,275.3401,0.0011937,0.00018759,0.0,0 STARLINK-3974,1 52634U 22052AN  24224.68187548  .00018759  00000-0  11937-2 0  9995,2 52634  53.2160 330.4589 0002099  84.7830 275.3401 15.08837267124186,6917.889,95.438,541.206,538.302,0.0
52634.0,STARLINK-3974,PAYLOAD,2024-08-12 00:18:49,15.08851095,0.0001082,53.2152,328.9788,94.7959,265.3157,0.0011387,0.00017886,0.0,0 STARLINK-3974,1 52634U 22052AN  24225.01306957  .00017886  00000-0  11387-2 0  9999,2 52634  53.2152 328.9788 0001082  94.7959 265.3157 15.08851095124614,6917.846,95.437,540.46,538.963,0.0
52634.0,STARLINK-3974,PAYLOAD,2024-08-12 06:40:21,15.08856847,0.0001107,53.2168,327.7875,95.5486,264.5632,0.0010154,0.00015916,0.0,0 STARLINK-3974,1 52634U 22052AN  24225.27802683  .00015916  00000-0  10154-2 0  9997,2 52634  53.2168 327.7875 0001107  95.5486 264.5632 15.08856847124278,6917.829,95.436,540.46,538.928,0.0
52634.0,STARLINK-3974,PAYLOAD,2024-08-12 16:12:38,15.08916281,0.0002968,53.2128,326.0021,86.6541,273.4791,0.0024213,0.00038541,0.0,0 STARLINK-3974,1 52634U 22052AN  24225.67545129  .00038541  00000-0  24213-2 0  9990,2 52634  53.2128 326.0021 0002968  86.6541 273.4791 15.08916281124711,6917.647,95.433,541.565,537.459,0.0
52634.0,STARLINK-3974,PAYLOAD,2024-08-12 19:23:24,15.08973241,0.0002141,53.2111,325.4036,92.7843,267.3394,0.00514,0.0008278,0.0,0 STARLINK-3974,1 52634U 22052AN  24225.80791667  .00082780  00000-0  51400-2 0  9997,2 52634  53.2111 325.4036 0002141  92.7843 267.3394 15.08973241124358,6917.473,95.429,540.819,537.857,0.0
